start=new Date('2022-02-06T00:00:00.000Z').valueOf();
sats=[{"CLASSIFICATION_TYPE":"U","BSTAR":"-0.00000521300000","MEAN_ELEMENT_THEORY":"SGP4","EPOCH":"2022-02-05T13:19:41.533248","GP_ID":"195367541","LAUNCH_DATE":"2020-11-25","MEAN_MOTION_DOT":"-0.00000359","NORAD_CAT_ID":"47147","FILE":"3292709","INCLINATION":"53.0545","DECAY_DATE":null,"OBJECT_TYPE":"PAYLOAD","OBJECT_ID":"2020-088AB","ELEMENT_SET_NO":"999","PERIAPSIS":"546.228","MEAN_MOTION":"15.06401284","OBJECT_NAME":"STARLINK-1860","SEMIMAJOR_AXIS":"6925.345","ARG_OF_PERICENTER":"70.5426","APOAPSIS":"548.192","CENTER_NAME":"EARTH","SITE":"AFETR","PERIOD":"95.592","EPHEMERIS_TYPE":"0","ECCENTRICITY":"0.00014180","TLE_LINE2":"2 47147  53.0545 164.5693 0001418  70.5426 289.5716 15.06401284 66796","MEAN_MOTION_DDOT":"0.0000000000000","REF_FRAME":"TEME","MEAN_ANOMALY":"289.5716","RA_OF_ASC_NODE":"164.5693","TIME_SYSTEM":"UTC","TLE_LINE1":"1 47147U 20088AB  22036.55534182 -.00000359  00000-0 -52130-5 0  9992","RCS_SIZE":"LARGE","REV_AT_EPOCH":"6679","COUNTRY_CODE":"US"},{"OBJECT_NAME":"STARLINK-1861","SEMIMAJOR_AXIS":"6925.372","ARG_OF_PERICENTER":"73.9588","APOAPSIS":"548.124","CENTER_NAME":"EARTH","SITE":"AFETR","EPHEMERIS_TYPE":"0","PERIOD":"95.593","ECCENTRICITY":"0.00012810","TLE_LINE2":"2 47148  53.0565 153.7911 0001281  73.9588 286.1542 15.06392401 67203","MEAN_MOTION_DDOT":"0.0000000000000","REF_FRAME":"TEME","MEAN_ANOMALY":"286.1542","RA_OF_ASC_NODE":"153.7911","TIME_SYSTEM":"UTC","TLE_LINE1":"1 47148U 20088AC  22036.72950474 -.00000222  00000-0  39694-5 0  9996","RCS_SIZE":"LARGE","REV_AT_EPOCH":"6720","COUNTRY_CODE":"US","CLASSIFICATION_TYPE":"U","BSTAR":"0.00000396940000","MEAN_ELEMENT_THEORY":"SGP4","EPOCH":"2022-02-05T17:30:29.209536","GP_ID":"195375022","LAUNCH_DATE":"2020-11-25","MEAN_MOTION_DOT":"-0.00000222","NORAD_CAT_ID":"47148","INCLINATION":"53.0565","FILE":"3292820","DECAY_DATE":null,"OBJECT_ID":"2020-088AC","OBJECT_TYPE":"PAYLOAD","ELEMENT_SET_NO":"999","PERIAPSIS":"546.350","MEAN_MOTION":"15.06392401"},{"RA_OF_ASC_NODE":"164.5430","MEAN_ANOMALY":"275.8456","REF_FRAME":"TEME","MEAN_MOTION_DDOT":"0.0000000000000","TIME_SYSTEM":"UTC","RCS_SIZE":"LARGE","TLE_LINE1":"1 47149U 20088AD  22036.55902703 -.00001040  00000-0 -50921-4 0  9995","COUNTRY_CODE":"US","REV_AT_EPOCH":"6752","OBJECT_NAME":"STARLINK-1862","APOAPSIS":"548.267","SEMIMAJOR_AXIS":"6925.348","ARG_OF_PERICENTER":"84.2707","EPHEMERIS_TYPE":"0","PERIOD":"95.592","CENTER_NAME":"EARTH","SITE":"AFETR","TLE_LINE2":"2 47149  53.0539 164.5430 0001522  84.2707 275.8456 15.06400042 67522","ECCENTRICITY":"0.00015220","OBJECT_ID":"2020-088AD","OBJECT_TYPE":"PAYLOAD","DECAY_DATE":null,"ELEMENT_SET_NO":"999","MEAN_MOTION":"15.06400042","PERIAPSIS":"546.159","MEAN_ELEMENT_THEORY":"SGP4","BSTAR":"-0.00005092100000","CLASSIFICATION_TYPE":"U","GP_ID":"195368538","EPOCH":"2022-02-05T13:24:59.935392","MEAN_MOTION_DOT":"-0.00001040","LAUNCH_DATE":"2020-11-25","FILE":"3292709","INCLINATION":"53.0539","NORAD_CAT_ID":"47149"},{"COUNTRY_CODE":"US","REV_AT_EPOCH":"6693","RCS_SIZE":"LARGE","TLE_LINE1":"1 47150U 20088AE  22036.55257473 -.00002742  00000-0 -16528-3 0  9998","TIME_SYSTEM":"UTC","MEAN_ANOMALY":"277.8683","RA_OF_ASC_NODE":"154.5701","REF_FRAME":"TEME","MEAN_MOTION_DDOT":"0.0000000000000","ECCENTRICITY":"0.00014260","TLE_LINE2":"2 47150  53.0529 154.5701 0001426  82.2467 277.8683 15.06394178 66937","EPHEMERIS_TYPE":"0","PERIOD":"95.593","SITE":"AFETR","CENTER_NAME":"EARTH","SEMIMAJOR_AXIS":"6925.366","ARG_OF_PERICENTER":"82.2467","APOAPSIS":"548.219","OBJECT_NAME":"STARLINK-1863","MEAN_MOTION":"15.06394178","PERIAPSIS":"546.244","ELEMENT_SET_NO":"999","DECAY_DATE":null,"OBJECT_TYPE":"PAYLOAD","OBJECT_ID":"2020-088AE","FILE":"3292709","INCLINATION":"53.0529","NORAD_CAT_ID":"47150","MEAN_MOTION_DOT":"-0.00002742","LAUNCH_DATE":"2020-11-25","EPOCH":"2022-02-05T13:15:42.456672","GP_ID":"195367791","BSTAR":"-0.00016528000000","MEAN_ELEMENT_THEORY":"SGP4","CLASSIFICATION_TYPE":"U"},{"OBJECT_NAME":"STARLINK-1864","APOAPSIS":"548.252","SEMIMAJOR_AXIS":"6925.365","ARG_OF_PERICENTER":"76.5145","SITE":"AFETR","CENTER_NAME":"EARTH","EPHEMERIS_TYPE":"0","PERIOD":"95.592","TLE_LINE2":"2 47151  53.0536 163.6857 0001475  76.5145 283.6008 15.06394501 67063","ECCENTRICITY":"0.00014750","MEAN_MOTION_DDOT":"0.0000000000000","REF_FRAME":"TEME","RA_OF_ASC_NODE":"163.6857","MEAN_ANOMALY":"283.6008","TIME_SYSTEM":"UTC","TLE_LINE1":"1 47151U 20088AF  22036.75069943 -.00007376  00000-0 -47684-3 0  9999","RCS_SIZE":"LARGE","REV_AT_EPOCH":"6706","COUNTRY_CODE":"US","CLASSIFICATION_TYPE":"U","MEAN_ELEMENT_THEORY":"SGP4","BSTAR":"-0.00047684000000","GP_ID":"195375101","EPOCH":"2022-02-05T18:01:00.430752","LAUNCH_DATE":"2020-11-25","MEAN_MOTION_DOT":"-0.00007376","NORAD_CAT_ID":"47151","FILE":"3292832","INCLINATION":"53.0536","OBJECT_TYPE":"PAYLOAD","OBJECT_ID":"2020-088AF","DECAY_DATE":null,"ELEMENT_SET_NO":"999","PERIAPSIS":"546.209","MEAN_MOTION":"15.06394501"},{"PERIOD":"95.593","EPHEMERIS_TYPE":"0","CENTER_NAME":"EARTH","SITE":"AFETR","ECCENTRICITY":"0.00015010","TLE_LINE2":"2 47152  53.0540 163.7606 0001501  80.7223 279.3936 15.06393807 67066","OBJECT_NAME":"STARLINK-1866","ARG_OF_PERICENTER":"80.7223","SEMIMAJOR_AXIS":"6925.368","APOAPSIS":"548.272","RCS_SIZE":"LARGE","TLE_LINE1":"1 47152U 20088AG  22036.73596160 -.00001046  00000-0 -51366-4 0  9995","COUNTRY_CODE":"US","REV_AT_EPOCH":"6706","MEAN_ANOMALY":"279.3936","RA_OF_ASC_NODE":"163.7606","MEAN_MOTION_DDOT":"0.0000000000000","REF_FRAME":"TEME","TIME_SYSTEM":"UTC","MEAN_MOTION_DOT":"-0.00001046","LAUNCH_DATE":"2020-11-25","FILE":"3292834","INCLINATION":"53.0540","NORAD_CAT_ID":"47152","BSTAR":"-0.00005136600000","MEAN_ELEMENT_THEORY":"SGP4","CLASSIFICATION_TYPE":"U","EPOCH":"2022-02-05T17:39:47.082240","GP_ID":"195375133","ELEMENT_SET_NO":"999","MEAN_MOTION":"15.06393807","PERIAPSIS":"546.193","DECAY_DATE":null,"OBJECT_TYPE":"PAYLOAD","OBJECT_ID":"2020-088AG"},{"EPHEMERIS_TYPE":"0","PERIOD":"95.593","SITE":"AFETR","CENTER_NAME":"EARTH","TLE_LINE2":"2 47153  53.0545 168.5674 0001440  83.9300 276.1853 15.06386217 67007","ECCENTRICITY":"0.00014400","OBJECT_NAME":"STARLINK-1867","APOAPSIS":"548.253","SEMIMAJOR_AXIS":"6925.391","ARG_OF_PERICENTER":"83.9300","RCS_SIZE":"LARGE","TLE_LINE1":"1 47153U 20088AH  22036.77694572 -.00001054  00000-0 -51902-4 0  9991","COUNTRY_CODE":"US","REV_AT_EPOCH":"6700","RA_OF_ASC_NODE":"168.5674","MEAN_ANOMALY":"276.1853","REF_FRAME":"TEME","MEAN_MOTION_DDOT":"0.0000000000000","TIME_SYSTEM":"UTC","MEAN_MOTION_DOT":"-0.00001054","LAUNCH_DATE":"2020-11-25","FILE":"3292828","INCLINATION":"53.0545","NORAD_CAT_ID":"47153","MEAN_ELEMENT_THEORY":"SGP4","BSTAR":"-0.00005190200000","CLASSIFICATION_TYPE":"U","GP_ID":"195375065","EPOCH":"2022-02-05T18:38:48.110208","ELEMENT_SET_NO":"999","MEAN_MOTION":"15.06386217","PERIAPSIS":"546.259","OBJECT_TYPE":"PAYLOAD","OBJECT_ID":"2020-088AH","DECAY_DATE":null},{"ELEMENT_SET_NO":"999","MEAN_MOTION":"15.06388462","PERIAPSIS":"546.302","OBJECT_TYPE":"PAYLOAD","OBJECT_ID":"2020-088AJ","DECAY_DATE":null,"MEAN_MOTION_DOT":"-0.00002272","LAUNCH_DATE":"2020-11-25","INCLINATION":"53.0534","FILE":"3292835","NORAD_CAT_ID":"47154","MEAN_ELEMENT_THEORY":"SGP4","BSTAR":"-0.00013372000000","CLASSIFICATION_TYPE":"U","GP_ID":"195375574","EPOCH":"2022-02-05T15:23:06.834048","RCS_SIZE":"LARGE","TLE_LINE1":"1 47154U 20088AJ  22036.64105132 -.00002272  00000-0 -13372-3 0  9998","COUNTRY_CODE":"US","REV_AT_EPOCH":"6719","RA_OF_ASC_NODE":"154.1720","MEAN_ANOMALY":"278.8549","MEAN_MOTION_DDOT":"0.0000000000000","REF_FRAME":"TEME","TIME_SYSTEM":"UTC","PERIOD":"95.593","EPHEMERIS_TYPE":"0","CENTER_NAME":"EARTH","SITE":"AFETR","TLE_LINE2":"2 47154  53.0534 154.1720 0001368  81.2595 278.8549 15.06388462 67190","ECCENTRICITY":"0.00013680","OBJECT_NAME":"STARLINK-1868","APOAPSIS":"548.196","SEMIMAJOR_AXIS":"6925.384","ARG_OF_PERICENTER":"81.2595"},{"APOAPSIS":"548.200","ARG_OF_PERICENTER":"60.7665","SEMIMAJOR_AXIS":"6925.329","OBJECT_NAME":"STARLINK-1869","TLE_LINE2":"2 47155  53.0547 174.0055 0001453  60.7665 299.3469 15.06406393 66914","ECCENTRICITY":"0.00014530","CENTER_NAME":"EARTH","SITE":"AFETR","EPHEMERIS_TYPE":"0","PERIOD":"95.592","TIME_SYSTEM":"UTC","REF_FRAME":"TEME","MEAN_MOTION_DDOT":"0.0000000000000","RA_OF_ASC_NODE":"174.0055","MEAN_ANOMALY":"299.3469","REV_AT_EPOCH":"6691","COUNTRY_CODE":"US","TLE_LINE1":"1 47155U 20088AK  22036.67606617 -.00002418  00000-0 -14344-3 0  9998","RCS_SIZE":"LARGE","GP_ID":"195375161","EPOCH":"2022-02-05T16:13:32.117088","CLASSIFICATION_TYPE":"U","MEAN_ELEMENT_THEORY":"SGP4","BSTAR":"-0.00014344000000","NORAD_CAT_ID":"47155","FILE":"3292835","INCLINATION":"53.0547","LAUNCH_DATE":"2020-11-25","MEAN_MOTION_DOT":"-0.00002418","OBJECT_TYPE":"PAYLOAD","OBJECT_ID":"2020-088AK","DECAY_DATE":null,"PERIAPSIS":"546.188","MEAN_MOTION":"15.06406393","ELEMENT_SET_NO":"999"},{"COUNTRY_CODE":"US","REV_AT_EPOCH":"6858","RCS_SIZE":"LARGE","TLE_LINE1":"1 47156U 20088AL  22036.76528343  .00159069  00000-0  96427-3 0  9993","TIME_SYSTEM":"UTC","RA_OF_ASC_NODE":"56.5196","MEAN_ANOMALY":"78.0808","REF_FRAME":"TEME","MEAN_MOTION_DDOT":"0.0000000000000","TLE_LINE2":"2 47156  53.0548  56.5196 0006074 281.9530  78.0808 15.76554163 68588","ECCENTRICITY":"0.00060740","EPHEMERIS_TYPE":"0","PERIOD":"91.338","CENTER_NAME":"EARTH","SITE":"AFETR","APOAPSIS":"344.295","ARG_OF_PERICENTER":"281.9530","SEMIMAJOR_AXIS":"6718.349","OBJECT_NAME":"STARLINK-1870","MEAN_MOTION":"15.76554163","PERIAPSIS":"336.134","ELEMENT_SET_NO":"999","OBJECT_ID":"2020-088AL","OBJECT_TYPE":"PAYLOAD","DECAY_DATE":null,"FILE":"3292840","INCLINATION":"53.0548","NORAD_CAT_ID":"47156","MEAN_MOTION_DOT":"0.00159069","LAUNCH_DATE":"2020-11-25","GP_ID":"195375192","EPOCH":"2022-02-05T18:22:00.488352","MEAN_ELEMENT_THEORY":"SGP4","BSTAR":"0.00096427000000","CLASSIFICATION_TYPE":"U"}];
